#dP2019 12  3  0  0  0.00000000      96 __u+U ITR00 FIT  IAC
## 2082 172800.00000000   900.00000000 58820 0.0000000000000
+  105   C06C07C08C09C10C11C12C13C14C16C19C20C21C22C23C24C25
+        C26C27C28C29C30C32C33C34C35C36C37E01E02E03E04E05E07
+        E08E09E11E12E13E14E15E18E19E21E24E25E26E27E30E31E33
+        E36G01G02G03G04G05G06G07G08G09G10G11G12G13G14G15G16
+        G17G18G19G20G21G22G23G24G25G26G27G28G29G30G31G32R01
+        R02R03R05R07R08R09R11R12R13R14R15R16R17R18R19R20R21
+        R22R23R26  0  0  0  0  0  0  0  0  0  0  0  0  0  0
++         8  9  9  8  8  8  8  8  8  8  7  8  8  7  8  7  8
++         7  8  8  8  7  8  8  8  8  7  8  4  5  5  4  5  5
++         5  5  4  4  4  5  4  4  5  4  4  5  4  4  5  4  4
++         5  3  3  4  4  4  3  3  3  3  4  3  4  4  4  4  3
++         3  4  3  4  4  3  3  4  4  3  3  4  3  4  4  4  6
++         5  5  5  5  5  5  5  5  6  5  5  6  5  5  6  6  5
++         5  5  8  0  0  0  0  0  0  0  0  0  0  0  0  0  0
%c M  cc GPS ccc cccc cccc cccc cccc ccccc ccccc ccccc ccccc
%c cc cc ccc ccc cccc cccc cccc cccc ccccc ccccc ccccc ccccc
%f  0.0000000  0.000000000  0.00000000000  0.000000000000000
%f  0.0000000  0.000000000  0.00000000000  0.000000000000000
%i    0    0    0    0      0      0      0      0         0
%i    0    0    0    0      0      0      0      0         0
/* INFORMATION & ANALYSIS CENTER (IAC)      ULTRA-RAPID DATA
/* S/V CLOCKS ARE ALIGNED TO GNSS TIME                      
/* G:C1WC2W R:C1PC2P E:C1XC5X C:C2IC6I J:C1CC2S             
/* PCV:IGS14_2080 OL/AL:FES2004  NONE     YN ORB:CoN CLK:CoN
*  2019 12 03  0 15  0.00000000
PC06 -17917.936191  38036.164957   5670.312713    298.271132
PC07  -9837.624955  25593.093060 -31751.743527    197.334987
PC08 -23099.733663  21714.342678  27718.084634    -46.330011
PC09  -8065.027108  40139.192131 -10589.154739    159.478778
PC10   5919.610564  33326.720910 -24725.239365   -423.790649
PC11   1259.515447  19396.379410  20061.891639    -37.446393
PC12 -14170.597624  23448.215796   5236.958708    302.784853
PC13  -6053.451703  24173.367828  34037.819999    136.568616
PC14   9977.350534  26016.770662    897.500186    347.847709
PC16 -15420.967186  39256.354462   2733.601302   -940.697628
PC19 -15132.554637 -22044.237596   8022.772184    260.577377
PC20  -3826.296884 -26088.695189  -9167.275780   -366.410463
PC21 -10164.669787  14684.292282  21447.076124    137.642201
PC22 -17828.824726  -5166.356422  20840.528460   -455.680438
PC23  27695.031841   2636.832757   2226.905557   -872.204169
PC24    -42.983948  16247.131669 -22690.538023   -881.341834
PC25  20264.985193  12765.093966 -14339.898297   -434.115416
PC26 -18756.859102  10347.194394 -17868.396067    482.308310
PC27  19388.468025 -19703.729241   3754.226237    235.679021
PC28  20259.570513  -4393.291797  18694.381719    226.743984
PC29  -9803.106435 -13062.635633 -22628.682989    154.348502
PC30   6498.431719 -23745.278731 -13121.735663    233.929886
PC32  10056.711085 -14776.546663 -21426.315216   -859.699967
PC33  15203.955075  22006.058918  -7935.835560   -628.864301
PC34  -6279.183720  23678.072783  13384.286756   -280.537731
PC35 -20111.393828   4957.468271 -18708.000434 999999.999999
PC36 -19783.638823 -13321.944704  14515.999872   -886.645652
PC37  19505.427022  -9599.191996  17528.972026   -840.032646
PE01 -20604.351059   3465.981190 -20958.486290   -744.294085
PE02  20568.459107  -3524.573964  21004.183967     96.031987
PE03  15578.842930 -13588.738295 -21198.116393   -239.582173
PE04  -6011.907281  28124.933214   6997.955687   -417.534772
PE05  16111.287777   9081.270957 -23116.832505   -426.146173
PE07  -7217.831116 -26305.190943  11504.999017   -307.398082
PE08   5661.081288 -28237.224891  -6874.779372   6254.714457
PE09   7384.760995  26197.664743 -11617.687518   6233.773928
PE11   6773.634646  14891.500728  24667.955147    208.315127
PE12 -14223.035916  20096.122426  16445.354506   6070.588731
PE13  -6594.488294 -14894.220259 -24705.464605    395.986009
PE14   2367.686823  20694.741384  12530.326275   -816.296639
PE15  13917.079434 -20118.388269 -16658.491750    885.736140
PE18 -11512.630182 -19810.434491 -22604.215629   -911.767481
PE19 -15979.972507  11348.260969  22178.529852     -2.623943
PE21 -26426.191219 -12074.113574  -5650.740710   -569.198041
PE24  16644.111684  20761.141394 -12994.787869   5736.220070
PE25  26423.559062  12127.218830   5580.465481   -497.398674
PE26 -23437.046297  -1027.862399 -18034.403295   3808.416201
PE27 -16713.300087 -20646.906497  13061.203899    333.192453
PE30   2944.030284 -17061.642741  24004.537143   4336.640416
PE31  -2753.075923  17064.786527 -24016.295663   -470.757817
PE33 -26284.173714  13560.846905  -1146.625613   -471.635021
PE36  23273.518471    928.417599  18278.373238    629.241972
PG01  -4675.590287 -14286.452309 -22115.122559   -217.028335
PG02 -17637.876618  14634.943840  13947.487441   -358.700221
PG03 -12167.776712 -22412.661718  -7641.995406    -46.258801
PG04  -5200.839924 -19649.092781  17096.323314    -15.818241
PG05  -5497.999385  15724.484203  20507.361094     -4.196660
PG06 -25761.915626   6221.484368   2023.745146   -142.016345
PG07 -20866.292895  -7394.535481  15300.199003   -161.614325
PG08   5077.917581 -25479.939474  -4866.472322    -15.404913
PG09 -10175.180192 -14225.595248  19929.944357    -98.479662
PG10  20182.008753   6276.695251 -16157.651984   -157.548648
PG11  -2619.910498 -17634.112591 -20268.367360   -430.682098
PG12   7044.320362  22877.177228 -11910.966116    177.298184
PG13 -13017.164920  23016.209911   1902.194571    -29.117608
PG14  16972.635997 -14945.335954 -13453.459017    -47.083531
PG15  -1775.618142  25701.118060  -5853.222400   -268.430053
PG16   7976.443454 -13341.749966  21270.507662    -99.096947
PG17 -16319.524278   4568.507138 -20005.598885    173.805803
PG18   4563.897047 -16292.971304 -20957.617723    104.150404
PG19 -17624.760978  11487.159619 -16516.180070   -231.619418
PG20  22180.462007  13105.942189  -6969.030241    527.589048
PG21  22628.801926   4438.976207  13779.298294    -76.838712
PG22  -6734.430656 -21467.029533 -13976.435658   -775.394258
PG23  -4178.619804 -21687.524411  14815.866571   -151.943909
PG24   2819.814397  15558.724190 -21508.118332     -5.699610
PG25  17659.342213  20012.637953    686.815639    -17.416875
PG26  15198.341371  -5687.242585  21040.378998     97.283725
PG27  12359.804012 -22433.843412   6261.391522   -138.461193
PG28 -18774.909714  -7105.040722 -16722.716590    752.460350
PG29   7825.620196  15463.820734  20089.431858     28.614971
PG30 -26139.702678    -77.475518   5297.973504    -97.177465
PG31  25498.282209  -7067.033095   4299.059233     -7.203420
PG32  16674.537591  -5329.301526 -19876.149347    143.665991
PR01  -6024.689894 -24764.640095   1192.303660     53.550123
PR02 -11666.768086 -11976.431840  19272.673585    400.598164
PR03  -9589.513141   7027.698964  22605.545880      5.830184
PR05   6744.744251  24304.111751  -3888.747153     40.505539
PR07   9418.294314  -7512.404684 -22451.651972    -30.210333
PR08   1976.150783 -21797.979500 -13044.122225     14.059442
PR09  24342.175393   7346.753098   1565.760544    104.227425
PR11   4430.157583 -10219.131538  22964.674902     17.984193
PR12 -13009.457177 -13123.114445  17601.943989     84.489579
PR13 -24003.870466  -8504.419189   1454.071188    -31.745021
PR14 -20506.161329    722.083079 -15145.165540     45.677224
PR15  -5354.397779   9670.669424 -22964.007951    104.998036
PR16  13640.148717  13022.537823 -17259.731761     -0.204816
PR17 -20413.625174  12651.125070  -8518.461152    280.655897
PR18 -15416.314757  18487.130615   8531.267681     16.616817
PR19  -2694.084292  14376.351400  20899.720106    -66.963740
PR20  13791.173812   1011.395457  21436.894338   -397.810752
PR21  20457.519679 -13139.561863   7774.647308    -89.100591
PR22  13548.791951 -18346.147091 -11294.862675     -3.885893
PR23  -3066.094009 -10913.104603 -22854.051981    270.671546
PR26  11209.207088   3746.854767  22623.637437     12.938819
EOF
